<?xml version="1.0" encoding="UTF-8"?>
<ndm xmlns:xsi="http://www.w3.org/2001/XMLSchema-instance" xsi:noNamespaceSchemaLocation="https://sanaregistry.org/r/ndmxml_unqualified/ndmxml-2.0.0-master-2.0.xsd">
<omm id="CCSDS_OMM_VERS" version="2.0">
<header><CREATION_DATE/><ORIGINATOR/></header><body><segment><metadata><OBJECT_NAME>KUIPER-00136</OBJECT_NAME><OBJECT_ID>2025-228R</OBJECT_ID><CENTER_NAME>EARTH</CENTER_NAME><REF_FRAME>TEME</REF_FRAME><TIME_SYSTEM>UTC</TIME_SYSTEM><MEAN_ELEMENT_THEORY>SGP4</MEAN_ELEMENT_THEORY></metadata><data><meanElements><EPOCH>2025-12-05T10:03:37.908000</EPOCH><MEAN_MOTION>15.34468380</MEAN_MOTION><ECCENTRICITY>.00057748</ECCENTRICITY><INCLINATION>51.8800</INCLINATION><RA_OF_ASC_NODE>55.7354</RA_OF_ASC_NODE><ARG_OF_PERICENTER>335.1668</ARG_OF_PERICENTER><MEAN_ANOMALY>24.9039</MEAN_ANOMALY></meanElements><tleParameters><EPHEMERIS_TYPE>0</EPHEMERIS_TYPE><CLASSIFICATION_TYPE>U</CLASSIFICATION_TYPE><NORAD_CAT_ID>65962</NORAD_CAT_ID><ELEMENT_SET_NO>999</ELEMENT_SET_NO><REV_AT_EPOCH>929</REV_AT_EPOCH><BSTAR>.16286772E-2</BSTAR><MEAN_MOTION_DOT>.55251E-3</MEAN_MOTION_DOT><MEAN_MOTION_DDOT>0</MEAN_MOTION_DDOT></tleParameters></data></segment></body></omm>
<omm id="CCSDS_OMM_VERS" version="2.0">
<header><CREATION_DATE/><ORIGINATOR/></header><body><segment><metadata><OBJECT_NAME>KUIPER-00137</OBJECT_NAME><OBJECT_ID>2025-228S</OBJECT_ID><CENTER_NAME>EARTH</CENTER_NAME><REF_FRAME>TEME</REF_FRAME><TIME_SYSTEM>UTC</TIME_SYSTEM><MEAN_ELEMENT_THEORY>SGP4</MEAN_ELEMENT_THEORY></metadata><data><meanElements><EPOCH>2025-12-05T11:58:56.579808</EPOCH><MEAN_MOTION>15.35506811</MEAN_MOTION><ECCENTRICITY>.00059465</ECCENTRICITY><INCLINATION>51.8800</INCLINATION><RA_OF_ASC_NODE>55.5296</RA_OF_ASC_NODE><ARG_OF_PERICENTER>3.1568</ARG_OF_PERICENTER><MEAN_ANOMALY>356.9454</MEAN_ANOMALY></meanElements><tleParameters><EPHEMERIS_TYPE>0</EPHEMERIS_TYPE><CLASSIFICATION_TYPE>U</CLASSIFICATION_TYPE><NORAD_CAT_ID>65963</NORAD_CAT_ID><ELEMENT_SET_NO>999</ELEMENT_SET_NO><REV_AT_EPOCH>930</REV_AT_EPOCH><BSTAR>.16940898E-2</BSTAR><MEAN_MOTION_DOT>.59465E-3</MEAN_MOTION_DOT><MEAN_MOTION_DDOT>0</MEAN_MOTION_DDOT></tleParameters></data></segment></body></omm>
<omm id="CCSDS_OMM_VERS" version="2.0">
<header><CREATION_DATE/><ORIGINATOR/></header><body><segment><metadata><OBJECT_NAME>KUIPER-00138</OBJECT_NAME><OBJECT_ID>2025-228T</OBJECT_ID><CENTER_NAME>EARTH</CENTER_NAME><REF_FRAME>TEME</REF_FRAME><TIME_SYSTEM>UTC</TIME_SYSTEM><MEAN_ELEMENT_THEORY>SGP4</MEAN_ELEMENT_THEORY></metadata><data><meanElements><EPOCH>2025-12-06T05:15:28.322784</EPOCH><MEAN_MOTION>15.35510492</MEAN_MOTION><ECCENTRICITY>.00078465</ECCENTRICITY><INCLINATION>51.8804</INCLINATION><RA_OF_ASC_NODE>52.0946</RA_OF_ASC_NODE><ARG_OF_PERICENTER>358.9377</ARG_OF_PERICENTER><MEAN_ANOMALY>1.1591</MEAN_ANOMALY></meanElements><tleParameters><EPHEMERIS_TYPE>0</EPHEMERIS_TYPE><CLASSIFICATION_TYPE>U</CLASSIFICATION_TYPE><NORAD_CAT_ID>65964</NORAD_CAT_ID><ELEMENT_SET_NO>999</ELEMENT_SET_NO><REV_AT_EPOCH>941</REV_AT_EPOCH><BSTAR>.15476814E-2</BSTAR><MEAN_MOTION_DOT>.54283E-3</MEAN_MOTION_DOT><MEAN_MOTION_DDOT>0</MEAN_MOTION_DDOT></tleParameters></data></segment></body></omm>
<omm id="CCSDS_OMM_VERS" version="2.0">
<header><CREATION_DATE/><ORIGINATOR/></header><body><segment><metadata><OBJECT_NAME>KUIPER-00140</OBJECT_NAME><OBJECT_ID>2025-228U</OBJECT_ID><CENTER_NAME>EARTH</CENTER_NAME><REF_FRAME>TEME</REF_FRAME><TIME_SYSTEM>UTC</TIME_SYSTEM><MEAN_ELEMENT_THEORY>SGP4</MEAN_ELEMENT_THEORY></metadata><data><meanElements><EPOCH>2025-12-06T05:24:32.485536</EPOCH><MEAN_MOTION>15.34983970</MEAN_MOTION><ECCENTRICITY>.00080186</ECCENTRICITY><INCLINATION>51.8797</INCLINATION><RA_OF_ASC_NODE>52.1421</RA_OF_ASC_NODE><ARG_OF_PERICENTER>352.7216</ARG_OF_PERICENTER><MEAN_ANOMALY>7.3653</MEAN_ANOMALY></meanElements><tleParameters><EPHEMERIS_TYPE>0</EPHEMERIS_TYPE><CLASSIFICATION_TYPE>U</CLASSIFICATION_TYPE><NORAD_CAT_ID>65965</NORAD_CAT_ID><ELEMENT_SET_NO>999</ELEMENT_SET_NO><REV_AT_EPOCH>941</REV_AT_EPOCH><BSTAR>.13397506E-2</BSTAR><MEAN_MOTION_DOT>.46102E-3</MEAN_MOTION_DOT><MEAN_MOTION_DDOT>0</MEAN_MOTION_DDOT></tleParameters></data></segment></body></omm>
<omm id="CCSDS_OMM_VERS" version="2.0">
<header><CREATION_DATE/><ORIGINATOR/></header><body><segment><metadata><OBJECT_NAME>KUIPER-00141</OBJECT_NAME><OBJECT_ID>2025-228V</OBJECT_ID><CENTER_NAME>EARTH</CENTER_NAME><REF_FRAME>TEME</REF_FRAME><TIME_SYSTEM>UTC</TIME_SYSTEM><MEAN_ELEMENT_THEORY>SGP4</MEAN_ELEMENT_THEORY></metadata><data><meanElements><EPOCH>2025-12-06T06:25:57.088704</EPOCH><MEAN_MOTION>15.36072963</MEAN_MOTION><ECCENTRICITY>.00058591</ECCENTRICITY><INCLINATION>51.8799</INCLINATION><RA_OF_ASC_NODE>51.6746</RA_OF_ASC_NODE><ARG_OF_PERICENTER>347.1653</ARG_OF_PERICENTER><MEAN_ANOMALY>12.9183</MEAN_ANOMALY></meanElements><tleParameters><EPHEMERIS_TYPE>0</EPHEMERIS_TYPE><CLASSIFICATION_TYPE>U</CLASSIFICATION_TYPE><NORAD_CAT_ID>65966</NORAD_CAT_ID><ELEMENT_SET_NO>999</ELEMENT_SET_NO><REV_AT_EPOCH>942</REV_AT_EPOCH><BSTAR>.18400497E-2</BSTAR><MEAN_MOTION_DOT>.65865E-3</MEAN_MOTION_DOT><MEAN_MOTION_DDOT>0</MEAN_MOTION_DDOT></tleParameters></data></segment></body></omm>
<omm id="CCSDS_OMM_VERS" version="2.0">
<header><CREATION_DATE/><ORIGINATOR/></header><body><segment><metadata><OBJECT_NAME>KUIPER-00146</OBJECT_NAME><OBJECT_ID>2025-228W</OBJECT_ID><CENTER_NAME>EARTH</CENTER_NAME><REF_FRAME>TEME</REF_FRAME><TIME_SYSTEM>UTC</TIME_SYSTEM><MEAN_ELEMENT_THEORY>SGP4</MEAN_ELEMENT_THEORY></metadata><data><meanElements><EPOCH>2025-12-06T05:04:36.094368</EPOCH><MEAN_MOTION>15.35659617</MEAN_MOTION><ECCENTRICITY>.00067042</ECCENTRICITY><INCLINATION>51.8812</INCLINATION><RA_OF_ASC_NODE>52.0552</RA_OF_ASC_NODE><ARG_OF_PERICENTER>350.6507</ARG_OF_PERICENTER><MEAN_ANOMALY>9.4353</MEAN_ANOMALY></meanElements><tleParameters><EPHEMERIS_TYPE>0</EPHEMERIS_TYPE><CLASSIFICATION_TYPE>U</CLASSIFICATION_TYPE><NORAD_CAT_ID>65967</NORAD_CAT_ID><ELEMENT_SET_NO>999</ELEMENT_SET_NO><REV_AT_EPOCH>941</REV_AT_EPOCH><BSTAR>.14426134E-2</BSTAR><MEAN_MOTION_DOT>.50778E-3</MEAN_MOTION_DOT><MEAN_MOTION_DDOT>0</MEAN_MOTION_DDOT></tleParameters></data></segment></body></omm>
<omm id="CCSDS_OMM_VERS" version="2.0">
<header><CREATION_DATE/><ORIGINATOR/></header><body><segment><metadata><OBJECT_NAME>KUIPER-00149</OBJECT_NAME><OBJECT_ID>2025-228X</OBJECT_ID><CENTER_NAME>EARTH</CENTER_NAME><REF_FRAME>TEME</REF_FRAME><TIME_SYSTEM>UTC</TIME_SYSTEM><MEAN_ELEMENT_THEORY>SGP4</MEAN_ELEMENT_THEORY></metadata><data><meanElements><EPOCH>2025-12-06T06:20:07.195488</EPOCH><MEAN_MOTION>15.35865639</MEAN_MOTION><ECCENTRICITY>.00052362</ECCENTRICITY><INCLINATION>51.8818</INCLINATION><RA_OF_ASC_NODE>51.6532</RA_OF_ASC_NODE><ARG_OF_PERICENTER>344.2380</ARG_OF_PERICENTER><MEAN_ANOMALY>15.8443</MEAN_ANOMALY></meanElements><tleParameters><EPHEMERIS_TYPE>0</EPHEMERIS_TYPE><CLASSIFICATION_TYPE>U</CLASSIFICATION_TYPE><NORAD_CAT_ID>65968</NORAD_CAT_ID><ELEMENT_SET_NO>999</ELEMENT_SET_NO><REV_AT_EPOCH>942</REV_AT_EPOCH><BSTAR>.25398952E-2</BSTAR><MEAN_MOTION_DOT>.90747E-3</MEAN_MOTION_DOT><MEAN_MOTION_DDOT>0</MEAN_MOTION_DDOT></tleParameters></data></segment></body></omm>
<omm id="CCSDS_OMM_VERS" version="2.0">
<header><CREATION_DATE/><ORIGINATOR/></header><body><segment><metadata><OBJECT_NAME>KUIPER-00154</OBJECT_NAME><OBJECT_ID>2025-228Y</OBJECT_ID><CENTER_NAME>EARTH</CENTER_NAME><REF_FRAME>TEME</REF_FRAME><TIME_SYSTEM>UTC</TIME_SYSTEM><MEAN_ELEMENT_THEORY>SGP4</MEAN_ELEMENT_THEORY></metadata><data><meanElements><EPOCH>2025-12-06T06:25:53.179104</EPOCH><MEAN_MOTION>15.35711048</MEAN_MOTION><ECCENTRICITY>.00058045</ECCENTRICITY><INCLINATION>51.8803</INCLINATION><RA_OF_ASC_NODE>51.6777</RA_OF_ASC_NODE><ARG_OF_PERICENTER>347.2310</ARG_OF_PERICENTER><MEAN_ANOMALY>12.8528</MEAN_ANOMALY></meanElements><tleParameters><EPHEMERIS_TYPE>0</EPHEMERIS_TYPE><CLASSIFICATION_TYPE>U</CLASSIFICATION_TYPE><NORAD_CAT_ID>65969</NORAD_CAT_ID><ELEMENT_SET_NO>999</ELEMENT_SET_NO><REV_AT_EPOCH>942</REV_AT_EPOCH><BSTAR>.19820676E-2</BSTAR><MEAN_MOTION_DOT>.70195E-3</MEAN_MOTION_DOT><MEAN_MOTION_DDOT>0</MEAN_MOTION_DDOT></tleParameters></data></segment></body></omm>

</ndm>
