KUIPER-00136            
1 65962U 25228R   25339.41918875  .00055251  00000+0  16287-2 0  9995
2 65962  51.8800  55.7354 0005774 335.1668  24.9039 15.34468380  9295
KUIPER-00137            
1 65963U 25228S   25339.49926597  .00059465  00000+0  16941-2 0  9992
2 65963  51.8800  55.5296 0005946   3.1568 356.9454 15.35506811  9305
KUIPER-00138            
1 65964U 25228T   25340.21907781  .00054283  00000+0  15477-2 0  9995
2 65964  51.8804  52.0946 0007846 358.9377   1.1591 15.35510492  9417
KUIPER-00140            
1 65965U 25228U   25340.22537599  .00046102  00000+0  13398-2 0  9994
2 65965  51.8797  52.1421 0008018 352.7216   7.3653 15.34983970  9415
KUIPER-00141            
1 65966U 25228V   25340.26802186  .00065865  00000+0  18400-2 0  9992
2 65966  51.8799  51.6746 0005859 347.1653  12.9183 15.36072963  9429
KUIPER-00146            
1 65967U 25228W   25340.21152887  .00050778  00000+0  14426-2 0  9995
2 65967  51.8812  52.0552 0006704 350.6507   9.4353 15.35659617  9418
KUIPER-00149            
1 65968U 25228X   25340.26397217  .00090747  00000+0  25399-2 0  9990
2 65968  51.8818  51.6532 0005236 344.2380  15.8443 15.35865639  9420
KUIPER-00154            
1 65969U 25228Y   25340.26797661  .00070195  00000+0  19821-2 0  9996
2 65969  51.8803  51.6777 0005804 347.2310  12.8528 15.35711048  9428
